[{"OBJECT_NAME":"TIANMU-1 21","OBJECT_ID":"2023-208C","EPOCH":"2026-03-09T21:48:13.065120","MEAN_MOTION":15.33041299,"ECCENTRICITY":0.00059807,"INCLINATION":97.4378,"RA_OF_ASC_NODE":187.7048,"ARG_OF_PERICENTER":317.2488,"MEAN_ANOMALY":42.8288,"EPHEMERIS_TYPE":0,"CLASSIFICATION_TYPE":"U","NORAD_CAT_ID":58662,"ELEMENT_SET_NO":999,"REV_AT_EPOCH":12234,"BSTAR":0.00040063782,"MEAN_MOTION_DOT":0.00012722,"MEAN_MOTION_DDOT":0},{"OBJECT_NAME":"STARLINK-32842","OBJECT_ID":"2025-018S","EPOCH":"2026-03-09T21:58:02.877312","MEAN_MOTION":15.30217658,"ECCENTRICITY":0.00019145,"INCLINATION":53.162,"RA_OF_ASC_NODE":308.4976,"ARG_OF_PERICENTER":157.6694,"MEAN_ANOMALY":202.4391,"EPHEMERIS_TYPE":0,"CLASSIFICATION_TYPE":"U","NORAD_CAT_ID":62822,"ELEMENT_SET_NO":999,"REV_AT_EPOCH":6321,"BSTAR":0.0011642878,"MEAN_MOTION_DOT":0.00034302,"MEAN_MOTION_DDOT":0}]
